{
  "norad_id": 66944,
  "name": "STARLINK-36112",
  "history": [
    {
      "epoch": "2026-03-28T19:50:26.050560",
      "apogee_km": 476.0107117554471,
      "perigee_km": 474.3153423947506,
      "latitude_deg": 5.475499652486227,
      "longitude_deg": -126.23772160010412,
      "semi_major_axis_km": 6853.300027075099,
      "eccentricity": 0.00012369,
      "inclination_deg": 53.1598,
      "raan_deg": 269.7765,
      "arg_perigee_deg": 80.4492,
      "mean_anomaly_deg": 279.6649,
      "mean_motion_rev_day": 15.3021743
    }
  ]
}