{"fetched_at":"2026-03-29T16:36:15Z","count":15609,"tles":[{"name":"STARLINK-36112","line1":"1 66944U 25286V   26087.82669040  .00021484  00000+0  73499-3 0  9993","line2":"2 66944  53.1598 269.7765 0001236  80.4492 279.6649 15.30217430 18348","category":"Starlink"}]}